[{"OBJECT_NAME":"OBJECT C","OBJECT_ID":"2024-085C","EPOCH":"2026-03-09T22:49:58.289376","MEAN_MOTION":15.31893958,"ECCENTRICITY":0.00283931,"INCLINATION":97.3357,"RA_OF_ASC_NODE":145.6975,"ARG_OF_PERICENTER":37.3887,"MEAN_ANOMALY":322.9323,"EPHEMERIS_TYPE":0,"CLASSIFICATION_TYPE":"U","NORAD_CAT_ID":59679,"ELEMENT_SET_NO":999,"REV_AT_EPOCH":10244,"BSTAR":0.00039740634,"MEAN_MOTION_DOT":0.0001232,"MEAN_MOTION_DDOT":0},{"OBJECT_NAME":"STARLINK-36471","OBJECT_ID":"2026-002V","EPOCH":"2026-03-09T02:51:22.155552","MEAN_MOTION":15.2758585,"ECCENTRICITY":0.00013932,"INCLINATION":43.0021,"RA_OF_ASC_NODE":328.3142,"ARG_OF_PERICENTER":277.6642,"MEAN_ANOMALY":82.4051,"EPHEMERIS_TYPE":0,"CLASSIFICATION_TYPE":"U","NORAD_CAT_ID":67324,"ELEMENT_SET_NO":999,"REV_AT_EPOCH":1099,"BSTAR":0.0010515395,"MEAN_MOTION_DOT":0.00028792,"MEAN_MOTION_DDOT":0}]
